0 COSMOS 1823 DEB
1 20285U 87020DP  13285.88196467  .00000006  00000-0  19391-3 0  6261
2 20285 073.6348 087.4139 0084102 259.7364 099.4250 12.30036150 98831
0 COSMOS 1823 DEB
1 20285U 87020DP  13290.11082677 -.00000011  00000-0  54757-4 0  6274
2 20285 073.6378 081.8696 0083996 253.5913 105.5832 12.30036497 99359
0 COSMOS 1823 DEB
1 20285U 87020DP  13290.76143041  .00000017  00000-0  10000-3 0  6286
2 20285 073.6485 081.0210 0084439 253.0600 106.1518 12.30036812 99431
0 COSMOS 1823 DEB
1 20285U 87020DP  13294.86294671  .00000134  00000-0  12680-2 0  6293
2 20285 073.6485 075.6447 0085310 247.6971 267.8208 12.30037262 99937
